QIANFAN-89              
1 63175U 25046S   25217.55966161  .00000137  00000+0  19352-3 0  9998
2 63175  88.9861 333.3488 0018203 135.9363 224.3243 13.50964240 29960
QIANFAN-90              
1 63176U 25046T   25217.58845308  .00000144  00000+0  20406-3 0  9991
2 63176  88.9861 333.3180 0015180 133.5828 226.6586 13.50962935 29987
